start=new Date('2022-10-11T00:00:00.000Z').valueOf();
sats=[{"OBJECT_ID":"2022-005W","GP_ID":"214684807","REF_FRAME":"TEME","APOAPSIS":"540.954","BSTAR":"0.00020562000000","CLASSIFICATION_TYPE":"U","ARG_OF_PERICENTER":"58.2732","MEAN_MOTION_DOT":"0.00002987","PERIAPSIS":"538.470","LAUNCH_DATE":"2022-01-19","OBJECT_TYPE":"PAYLOAD","DECAY_DATE":null,"MEAN_ANOMALY":"301.8435","FILE":"3601275","SEMIMAJOR_AXIS":"6917.847","TIME_SYSTEM":"UTC","SITE":"AFETR","NORAD_CAT_ID":"51124","TLE_LINE2":"2 51124  53.2148 131.9146 0001795  58.2732 301.8435 15.08850969 41776","OBJECT_NAME":"STARLINK-3389","MEAN_ELEMENT_THEORY":"SGP4","EPOCH":"2022-10-10T20:25:41.161440","ECCENTRICITY":"0.00017950","REV_AT_EPOCH":"4177","RA_OF_ASC_NODE":"131.9146","CENTER_NAME":"EARTH","TLE_LINE1":"1 51124U 22005W   22283.85117085  .00002987  00000-0  20562-3 0  9998","PERIOD":"95.437","COUNTRY_CODE":"US","ELEMENT_SET_NO":"999","RCS_SIZE":"LARGE","MEAN_MOTION_DDOT":"0.0000000000000","INCLINATION":"53.2148","EPHEMERIS_TYPE":"0","MEAN_MOTION":"15.08850969"},{"TLE_LINE1":"1 51125U 22005X   22283.84013079 -.00000115  00000-0  10855-4 0  9993","PERIOD":"95.438","COUNTRY_CODE":"US","ELEMENT_SET_NO":"999","RCS_SIZE":"LARGE","INCLINATION":"53.2161","MEAN_MOTION_DDOT":"0.0000000000000","MEAN_MOTION":"15.08837309","EPHEMERIS_TYPE":"0","MEAN_ELEMENT_THEORY":"SGP4","EPOCH":"2022-10-10T20:09:47.300256","ECCENTRICITY":"0.00020350","REV_AT_EPOCH":"4176","RA_OF_ASC_NODE":"131.9699","CENTER_NAME":"EARTH","DECAY_DATE":null,"MEAN_ANOMALY":"311.2406","FILE":"3601275","SEMIMAJOR_AXIS":"6917.889","TIME_SYSTEM":"UTC","SITE":"AFETR","NORAD_CAT_ID":"51125","OBJECT_NAME":"STARLINK-3387","TLE_LINE2":"2 51125  53.2161 131.9699 0002035  48.8762 311.2406 15.08837309 41766","GP_ID":"214684816","OBJECT_ID":"2022-005X","REF_FRAME":"TEME","APOAPSIS":"541.161","BSTAR":"0.00001085500000","CLASSIFICATION_TYPE":"U","ARG_OF_PERICENTER":"48.8762","MEAN_MOTION_DOT":"-0.00000115","PERIAPSIS":"538.346","LAUNCH_DATE":"2022-01-19","OBJECT_TYPE":"PAYLOAD"},{"BSTAR":"0.00007025400000","CLASSIFICATION_TYPE":"U","APOAPSIS":"540.971","GP_ID":"214718413","OBJECT_ID":"2022-005Y","REF_FRAME":"TEME","PERIAPSIS":"538.518","LAUNCH_DATE":"2022-01-19","OBJECT_TYPE":"PAYLOAD","MEAN_MOTION_DOT":"0.00000830","ARG_OF_PERICENTER":"65.3836","SEMIMAJOR_AXIS":"6917.879","TIME_SYSTEM":"UTC","FILE":"3601747","DECAY_DATE":null,"MEAN_ANOMALY":"294.7341","TLE_LINE2":"2 51126  53.2141 132.5266 0001773  65.3836 294.7341 15.08840374 40641","OBJECT_NAME":"STARLINK-3386","SITE":"AFETR","NORAD_CAT_ID":"51126","MEAN_ELEMENT_THEORY":"SGP4","CENTER_NAME":"EARTH","REV_AT_EPOCH":"4064","RA_OF_ASC_NODE":"132.5266","ECCENTRICITY":"0.00017730","EPOCH":"2022-10-10T17:09:36.209088","TLE_LINE1":"1 51126U 22005Y   22283.71500242  .00000830  00000-0  70254-4 0  9995","MEAN_MOTION_DDOT":"0.0000000000000","INCLINATION":"53.2141","EPHEMERIS_TYPE":"0","MEAN_MOTION":"15.08840374","ELEMENT_SET_NO":"999","RCS_SIZE":"LARGE","COUNTRY_CODE":"US","PERIOD":"95.438"},{"MEAN_ELEMENT_THEORY":"SGP4","CENTER_NAME":"EARTH","REV_AT_EPOCH":"4169","RA_OF_ASC_NODE":"134.3308","ECCENTRICITY":"0.00018730","EPOCH":"2022-10-10T07:31:59.531808","TLE_LINE1":"1 51127U 22005Z   22283.31388347  .00002492  00000-0  17462-3 0  9999","MEAN_MOTION_DDOT":"0.0000000000000","INCLINATION":"53.2167","EPHEMERIS_TYPE":"0","MEAN_MOTION":"15.08843844","ELEMENT_SET_NO":"999","RCS_SIZE":"LARGE","COUNTRY_CODE":"US","PERIOD":"95.437","BSTAR":"0.00017462000000","CLASSIFICATION_TYPE":"U","APOAPSIS":"541.029","OBJECT_ID":"2022-005Z","GP_ID":"214684806","REF_FRAME":"TEME","PERIAPSIS":"538.438","LAUNCH_DATE":"2022-01-19","OBJECT_TYPE":"PAYLOAD","MEAN_MOTION_DOT":"0.00002492","ARG_OF_PERICENTER":"49.9789","TIME_SYSTEM":"UTC","SEMIMAJOR_AXIS":"6917.869","FILE":"3601275","DECAY_DATE":null,"MEAN_ANOMALY":"310.1367","OBJECT_NAME":"STARLINK-3370","TLE_LINE2":"2 51127  53.2167 134.3308 0001873  49.9789 310.1367 15.08843844 41695","NORAD_CAT_ID":"51127","SITE":"AFETR"},{"TLE_LINE2":"2 51128  53.2158 132.6324 0001659  61.5158 298.6001 15.08833913 40620","OBJECT_NAME":"STARLINK-3400","SITE":"AFETR","NORAD_CAT_ID":"51128","TIME_SYSTEM":"UTC","SEMIMAJOR_AXIS":"6917.899","MEAN_ANOMALY":"298.6001","DECAY_DATE":null,"FILE":"3601747","MEAN_MOTION_DOT":"0.00002879","LAUNCH_DATE":"2022-01-19","PERIAPSIS":"538.616","OBJECT_TYPE":"PAYLOAD","ARG_OF_PERICENTER":"61.5158","BSTAR":"0.00019893000000","CLASSIFICATION_TYPE":"U","GP_ID":"214719415","OBJECT_ID":"2022-005AA","REF_FRAME":"TEME","APOAPSIS":"540.912","ELEMENT_SET_NO":"999","RCS_SIZE":"LARGE","MEAN_MOTION_DDOT":"0.0000000000000","INCLINATION":"53.2158","EPHEMERIS_TYPE":"0","MEAN_MOTION":"15.08833913","PERIOD":"95.438","COUNTRY_CODE":"US","TLE_LINE1":"1 51128U 22005AA  22283.69292689  .00002879  00000-0  19893-3 0  9993","REV_AT_EPOCH":"4062","RA_OF_ASC_NODE":"132.6324","CENTER_NAME":"EARTH","EPOCH":"2022-10-10T16:37:48.883296","ECCENTRICITY":"0.00016590","MEAN_ELEMENT_THEORY":"SGP4"},{"REF_FRAME":"TEME","GP_ID":"214684839","OBJECT_ID":"2022-005AB","APOAPSIS":"541.069","CLASSIFICATION_TYPE":"U","BSTAR":"-0.00004097100000","ARG_OF_PERICENTER":"50.8215","MEAN_MOTION_DOT":"-0.00000940","OBJECT_TYPE":"PAYLOAD","LAUNCH_DATE":"2022-01-19","PERIAPSIS":"538.440","DECAY_DATE":null,"MEAN_ANOMALY":"309.2945","FILE":"3601277","SEMIMAJOR_AXIS":"6917.889","TIME_SYSTEM":"UTC","SITE":"AFETR","NORAD_CAT_ID":"51129","OBJECT_NAME":"STARLINK-3396","TLE_LINE2":"2 51129  53.2157 131.9093 0001900  50.8215 309.2945 15.08837102 41787","MEAN_ELEMENT_THEORY":"SGP4","EPOCH":"2022-10-10T20:27:03.023712","ECCENTRICITY":"0.00019000","RA_OF_ASC_NODE":"131.9093","REV_AT_EPOCH":"4178","CENTER_NAME":"EARTH","TLE_LINE1":"1 51129U 22005AB  22283.85211833 -.00000940  00000-0 -40971-4 0  9995","PERIOD":"95.438","COUNTRY_CODE":"US","RCS_SIZE":"LARGE","ELEMENT_SET_NO":"999","EPHEMERIS_TYPE":"0","MEAN_MOTION":"15.08837102","MEAN_MOTION_DDOT":"0.0000000000000","INCLINATION":"53.2157"},{"TLE_LINE2":"2 51130  53.2168 131.9838 0001737  50.4829 309.6316 15.08840266 40648","OBJECT_NAME":"STARLINK-3395","SITE":"AFETR","NORAD_CAT_ID":"51130","SEMIMAJOR_AXIS":"6917.880","TIME_SYSTEM":"UTC","FILE":"3601747","MEAN_ANOMALY":"309.6316","DECAY_DATE":null,"OBJECT_TYPE":"PAYLOAD","PERIAPSIS":"538.543","LAUNCH_DATE":"2022-01-19","MEAN_MOTION_DOT":"0.00001413","ARG_OF_PERICENTER":"50.4829","CLASSIFICATION_TYPE":"U","BSTAR":"0.00010684000000","APOAPSIS":"540.946","REF_FRAME":"TEME","OBJECT_ID":"2022-005AC","GP_ID":"214717913","EPHEMERIS_TYPE":"0","MEAN_MOTION":"15.08840266","MEAN_MOTION_DDOT":"0.0000000000000","INCLINATION":"53.2168","RCS_SIZE":"LARGE","ELEMENT_SET_NO":"999","COUNTRY_CODE":"US","PERIOD":"95.438","TLE_LINE1":"1 51130U 22005AC  22283.83644119  .00001413  00000-0  10684-3 0  9993","CENTER_NAME":"EARTH","RA_OF_ASC_NODE":"131.9838","REV_AT_EPOCH":"4064","ECCENTRICITY":"0.00017370","EPOCH":"2022-10-10T20:04:28.518816","MEAN_ELEMENT_THEORY":"SGP4"},{"MEAN_ELEMENT_THEORY":"SGP4","RA_OF_ASC_NODE":"132.0195","REV_AT_EPOCH":"4064","CENTER_NAME":"EARTH","EPOCH":"2022-10-10T19:53:52.682208","ECCENTRICITY":"0.00020540","TLE_LINE1":"1 51131U 22005AD  22283.82908197 -.00001054  00000-0 -48113-4 0  9994","RCS_SIZE":"LARGE","ELEMENT_SET_NO":"999","MEAN_MOTION":"15.08837426","EPHEMERIS_TYPE":"0","INCLINATION":"53.2150","MEAN_MOTION_DDOT":"0.0000000000000","PERIOD":"95.438","COUNTRY_CODE":"US","CLASSIFICATION_TYPE":"U","BSTAR":"-0.00004811300000","REF_FRAME":"TEME","GP_ID":"214718664","OBJECT_ID":"2022-005AD","APOAPSIS":"541.174","MEAN_MOTION_DOT":"-0.00001054","OBJECT_TYPE":"PAYLOAD","PERIAPSIS":"538.332","LAUNCH_DATE":"2022-01-19","ARG_OF_PERICENTER":"44.1095","TIME_SYSTEM":"UTC","SEMIMAJOR_AXIS":"6917.888","MEAN_ANOMALY":"316.0060","DECAY_DATE":null,"FILE":"3601747","OBJECT_NAME":"STARLINK-3388","TLE_LINE2":"2 51131  53.2150 132.0195 0002054  44.1095 316.0060 15.08837426 40648","SITE":"AFETR","NORAD_CAT_ID":"51131"},{"TIME_SYSTEM":"UTC","SEMIMAJOR_AXIS":"6917.848","FILE":"3601747","DECAY_DATE":null,"MEAN_ANOMALY":"308.4322","OBJECT_NAME":"STARLINK-3393","TLE_LINE2":"2 51132  53.2154 132.6009 0001908  51.6841 308.4322 15.08850727 40625","SITE":"AFETR","NORAD_CAT_ID":"51132","CLASSIFICATION_TYPE":"U","BSTAR":"0.00048234000000","APOAPSIS":"541.033","REF_FRAME":"TEME","OBJECT_ID":"2022-005AE","GP_ID":"214718915","OBJECT_TYPE":"PAYLOAD","LAUNCH_DATE":"2022-01-19","PERIAPSIS":"538.393","MEAN_MOTION_DOT":"0.00007399","ARG_OF_PERICENTER":"51.6841","TLE_LINE1":"1 51132U 22005AE  22283.70029031  .00007399  00000-0  48234-3 0  9992","MEAN_MOTION":"15.08850727","EPHEMERIS_TYPE":"0","MEAN_MOTION_DDOT":"0.0000000000000","INCLINATION":"53.2154","RCS_SIZE":"LARGE","ELEMENT_SET_NO":"999","COUNTRY_CODE":"US","PERIOD":"95.437","MEAN_ELEMENT_THEORY":"SGP4","CENTER_NAME":"EARTH","RA_OF_ASC_NODE":"132.6009","REV_AT_EPOCH":"4062","ECCENTRICITY":"0.00019080","EPOCH":"2022-10-10T16:48:25.082784"},{"OBJECT_ID":"2022-005AF","GP_ID":"214719647","REF_FRAME":"TEME","APOAPSIS":"540.935","BSTAR":"0.00005665200000","CLASSIFICATION_TYPE":"U","ARG_OF_PERICENTER":"50.5518","MEAN_MOTION_DOT":"0.00000614","PERIAPSIS":"538.565","LAUNCH_DATE":"2022-01-19","OBJECT_TYPE":"PAYLOAD","DECAY_DATE":null,"MEAN_ANOMALY":"309.5625","FILE":"3601747","TIME_SYSTEM":"UTC","SEMIMAJOR_AXIS":"6917.885","SITE":"AFETR","NORAD_CAT_ID":"51133","TLE_LINE2":"2 51133  53.2154 132.6451 0001713  50.5518 309.5625 15.08838358 40624","OBJECT_NAME":"STARLINK-3356","MEAN_ELEMENT_THEORY":"SGP4","EPOCH":"2022-10-10T16:32:30.933888","ECCENTRICITY":"0.00017130","REV_AT_EPOCH":"4062","RA_OF_ASC_NODE":"132.6451","CENTER_NAME":"EARTH","TLE_LINE1":"1 51133U 22005AF  22283.68924692  .00000614  00000-0  56652-4 0  9994","PERIOD":"95.438","COUNTRY_CODE":"US","ELEMENT_SET_NO":"999","RCS_SIZE":"LARGE","MEAN_MOTION_DDOT":"0.0000000000000","INCLINATION":"53.2154","MEAN_MOTION":"15.08838358","EPHEMERIS_TYPE":"0"}];
